{
    "links": {
        "self": "http://www.neowsapp.com/rest/v1/neo/3773835?api_key=iIulBulltgU6a56xZRHN4H3l9WmuAYTsLGpBGhQ2"
    },
    "id": "3773835",
    "neo_reference_id": "3773835",
    "name": "(2017 GR5)",
    "designation": "2017 GR5",
    "nasa_jpl_url": "http://ssd.jpl.nasa.gov/sbdb.cgi?sstr=3773835",
    "absolute_magnitude_h": 24.8,
    "estimated_diameter": {
        "kilometers": {
            "estimated_diameter_min": 0.0291443905,
            "estimated_diameter_max": 0.0651688382
        },
        "meters": {
            "estimated_diameter_min": 29.1443904535,
            "estimated_diameter_max": 65.1688382168
        },
        "miles": {
            "estimated_diameter_min": 0.018109479,
            "estimated_diameter_max": 0.0404940262
        },
        "feet": {
            "estimated_diameter_min": 95.6180819754,
            "estimated_diameter_max": 213.8085311752
        }
    },
    "is_potentially_hazardous_asteroid": false,
    "close_approach_data": [
        {
            "close_approach_date": "2017-03-25",
            "close_approach_date_full": "2017-Mar-25 02:27",
            "epoch_date_close_approach": 1490408820000,
            "relative_velocity": {
                "kilometers_per_second": "1.929974012",
                "kilometers_per_hour": "6947.9064431487",
                "miles_per_hour": "4317.1588674109"
            },
            "miss_distance": {
                "astronomical": "0.1591241892",
                "lunar": "61.8993095988",
                "kilometers": "23804639.769797004",
                "miles": "14791517.2611824952"
            },
            "orbiting_body": "Earth"
        },
        {
            "close_approach_date": "2119-12-25",
            "close_approach_date_full": "2119-Dec-25 20:28",
            "epoch_date_close_approach": 4732979280000,
            "relative_velocity": {
                "kilometers_per_second": "8.6144628109",
                "kilometers_per_hour": "31012.0661192049",
                "miles_per_hour": "19269.6918616804"
            },
            "miss_distance": {
                "astronomical": "0.0682712358",
                "lunar": "26.5575107262",
                "kilometers": "10213231.457947746",
                "miles": "6346207.7504050548"
            },
            "orbiting_body": "Mars"
        },
        {
            "close_approach_date": "2128-03-14",
            "close_approach_date_full": "2128-Mar-14 08:52",
            "epoch_date_close_approach": 4992310320000,
            "relative_velocity": {
                "kilometers_per_second": "7.0249112743",
                "kilometers_per_hour": "25289.6805875499",
                "miles_per_hour": "15714.0240295251"
            },
            "miss_distance": {
                "astronomical": "0.0616855291",
                "lunar": "23.9956708199",
                "kilometers": "9228023.763183017",
                "miles": "5734028.0760269546"
            },
            "orbiting_body": "Mars"
        },
        {
            "close_approach_date": "2161-05-12",
            "close_approach_date_full": "2161-May-12 01:49",
            "epoch_date_close_approach": 6038761740000,
            "relative_velocity": {
                "kilometers_per_second": "8.1797458877",
                "kilometers_per_hour": "29447.0851958153",
                "miles_per_hour": "18297.2735762554"
            },
            "miss_distance": {
                "astronomical": "0.0536262212",
                "lunar": "20.8606000468",
                "kilometers": "8022368.467668844",
                "miles": "4984868.6143802872"
            },
            "orbiting_body": "Mars"
        },
        {
            "close_approach_date": "2169-07-31",
            "close_approach_date_full": "2169-Jul-31 23:50",
            "epoch_date_close_approach": 6298213800000,
            "relative_velocity": {
                "kilometers_per_second": "6.7322324755",
                "kilometers_per_hour": "24236.0369119621",
                "miles_per_hour": "15059.3308245467"
            },
            "miss_distance": {
                "astronomical": "0.0782197295",
                "lunar": "30.4274747755",
                "kilometers": "11701504.925176165",
                "miles": "7270978.000774477"
            },
            "orbiting_body": "Mars"
        }
    ],
    "orbital_data": {
        "orbit_id": "5",
        "orbit_determination_date": "2017-04-25 06:18:25",
        "first_observation_date": "2017-03-19",
        "last_observation_date": "2017-04-24",
        "data_arc_in_days": 36,
        "observations_used": 30,
        "orbit_uncertainty": "6",
        "minimum_orbit_intersection": ".15346",
        "jupiter_tisserand_invariant": "4.554",
        "epoch_osculation": "2459000.5",
        "eccentricity": ".2287431176655687",
        "semi_major_axis": "1.478787110713659",
        "inclination": "3.852135269525221",
        "ascending_node_longitude": "35.81690781765777",
        "orbital_period": "656.8359456111526",
        "perihelion_distance": "1.140524736645358",
        "perihelion_argument": "133.9259232048427",
        "aphelion_distance": "1.81704948478196",
        "perihelion_time": "2459132.992694236942",
        "mean_anomaly": "287.3831308350229",
        "mean_motion": ".5480820628125616",
        "equinox": "J2000",
        "orbit_class": {
            "orbit_class_type": "AMO",
            "orbit_class_description": "Near-Earth asteroid orbits similar to that of 1221 Amor",
            "orbit_class_range": "1.017 AU < q (perihelion) < 1.3 AU"
        }
    },
    "is_sentry_object": false
}